NORAD_CAT_ID,OBJECT_NAME,OBJECT_TYPE,EPOCH,MEAN_MOTION,ECCENTRICITY,INCLINATION,RA_OF_ASC_NODE,ARG_OF_PERICENTER,MEAN_ANOMALY,BSTAR,MEAN_MOTION_DOT,MEAN_MOTION_DDOT,TLE_LINE0,TLE_LINE1,TLE_LINE2,SEMIMAJOR_AXIS,PERIOD,APOGEE,PERIGEE,DECAYED
52640.0,STARLINK-3977,PAYLOAD,2022-06-08 14:00:01,15.73240634,0.0001036,53.214,317.1148,59.1039,318.9821,-0.00065912,-0.00092272,0.0,0 STARLINK-3977,1 52640U 22052AU  22159.58334491 -.00092272  00000-0 -65912-3 0  9994,2 52640  53.2140 317.1148 0001036  59.1039 318.9821 15.73240634  1307,6727.779,91.531,350.341,348.94699999999995,0.0
52640.0,STARLINK-3977,PAYLOAD,2022-06-08 22:00:01,15.73139768,0.0001085,53.2137,315.4665,43.012,64.0831,0.00060065,0.00084308,0.0,0 STARLINK-3977,1 52640U 22052AU  22159.91668981  .00084308  00000-0  60065-3 0  9998,2 52640  53.2137 315.4665 0001085  43.0120  64.0831 15.73139768  1300,6728.066999999999,91.537,350.662,349.202,0.0
52640.0,STARLINK-3977,PAYLOAD,2022-06-09 14:00:01,15.73165696,0.0001176,53.2135,312.1664,54.9219,229.8989,1.3213e-05,1.233e-05,0.0,0 STARLINK-3977,1 52640U 22052AU  22160.58334491  .00001233  00000-0  13213-4 0  9999,2 52640  53.2135 312.1664 0001176  54.9219 229.8989 15.73165696  1306,6727.993,91.535,350.649,349.06699999999995,0.0
52640.0,STARLINK-3977,PAYLOAD,2022-06-09 20:00:01,15.73150824,0.0001303,53.2133,310.9305,46.2125,215.2882,0.00058536,0.00082165,0.0,0 STARLINK-3977,1 52640U 22052AU  22160.83334491  .00082165  00000-0  58536-3 0  9996,2 52640  53.2133 310.9305 0001303  46.2125 215.2882 15.73150824  4473,6728.035,91.536,350.777,349.024,0.0
52640.0,STARLINK-3977,PAYLOAD,2022-06-09 22:00:00,15.73167565,0.0001283,53.2129,310.5179,43.7727,329.9478,0.00049875,0.00069863,0.0,0 STARLINK-3977,1 52640U 22052AU  22160.91667824  .00069863  00000-0  49875-3 0  9990,2 52640  53.2129 310.5179 0001283  43.7727 329.9478 15.73167565  1303,6727.988,91.535,350.716,348.98900000000015,0.0
52640.0,STARLINK-3977,PAYLOAD,2022-06-10 12:00:02,15.73270164,0.0001268,53.2135,307.6288,54.8029,24.5914,-0.00060203,-0.00084519,0.0,0 STARLINK-3977,1 52640U 22052AU  22161.50002315 -.00084519  00000-0 -60203-3 0  9999,2 52640  53.2135 307.6288 0001268  54.8029  24.5914 15.73270164  4585,6727.695,91.529,350.413,348.707,0.0
52640.0,STARLINK-3977,PAYLOAD,2022-06-10 14:00:01,15.73266789,0.000133,53.2135,307.217,52.4838,139.0918,-0.00074729,-0.00104502,0.0,0 STARLINK-3977,1 52640U 22052AU  22161.58334491 -.00104502  00000-0 -74729-3 0  9993,2 52640  53.2135 307.2170 0001330  52.4838 139.0918 15.73266789  1304,6727.705,91.529,350.465,348.675,0.0
52640.0,STARLINK-3977,PAYLOAD,2022-06-10 20:00:01,15.731934900000002,0.0001444,53.2134,305.9808,45.3581,122.9788,0.00032973,0.00045896,0.0,0 STARLINK-3977,1 52640U 22052AU  22161.83334491  .00045896  00000-0  32973-3 0  9994,2 52640  53.2134 305.9808 0001444  45.3581 122.9788 15.73193490  4631,6727.9140000000025,91.534,350.75,348.807,0.0
52640.0,STARLINK-3977,PAYLOAD,2022-06-10 22:00:00,15.73230684,0.0001405,53.2131,305.5681,42.3988,238.1622,-0.00022869,-0.00032633,0.0,0 STARLINK-3977,1 52640U 22052AU  22161.91667824 -.00032633  00000-0 -22869-3 0  9992,2 52640  53.2131 305.5681 0001405  42.3988 238.1622 15.73230684  1303,6727.808000000001,91.531,350.61800000000005,348.727,0.0
52640.0,STARLINK-3977,PAYLOAD,2022-06-11 04:00:00,15.73174912,0.0001257,53.2135,304.3291,45.609,211.6772,0.00010884,0.00014665,0.0,0 STARLINK-3977,1 52640U 22052AU  22162.16667824  .00014665  00000-0  10884-3 0  9997,2 52640  53.2135 304.3291 0001257  45.6090 211.6772 15.73174912  4683,6727.967,91.535,350.677,348.986,0.0
52640.0,STARLINK-3977,PAYLOAD,2022-06-11 22:00:00,15.73183372,0.0001549,53.2125,300.619,40.669,146.7178,0.00022417,0.00030934,0.0,0 STARLINK-3977,1 52640U 22052AU  22162.91667824  .00030934  00000-0  22417-3 0  9992,2 52640  53.2125 300.6190 0001549  40.6690 146.7178 15.73183372  1308,6727.943,91.534,350.85,348.765,0.0
52640.0,STARLINK-3977,PAYLOAD,2022-06-12 14:00:01,15.73212643,0.0001674,53.2133,297.3189,49.1679,316.0922,-0.00016483,-0.00023702,0.0,0 STARLINK-3977,1 52640U 22052AU  22163.58334491 -.00023702  00000-0 -16483-3 0  9990,2 52640  53.2133 297.3189 0001674  49.1679 316.0922 15.73212643  4909,6727.859,91.532,350.85,348.598,0.0
52640.0,STARLINK-3977,PAYLOAD,2022-06-12 22:00:00,15.73229606,0.0001732,53.2131,295.6696,40.8235,53.3689,-0.00036309,-0.00051335,0.0,0 STARLINK-3977,1 52640U 22052AU  22163.91667824 -.00051335  00000-0 -36309-3 0  9998,2 52640  53.2131 295.6696 0001732  40.8235  53.3689 15.73229606  1301,6727.811,91.531,350.841,348.511,0.0
52640.0,STARLINK-3977,PAYLOAD,2022-06-13 04:00:00,15.73165638,0.0001476,53.2134,294.4308,42.5771,28.3462,0.0005906,0.00082967,0.0,0 STARLINK-3977,1 52640U 22052AU  22164.16667824  .00082967  00000-0  59060-3 0  9998,2 52640  53.2134 294.4308 0001476  42.5771  28.3462 15.73165638  5006,6727.993,91.535,350.851,348.865,0.0
52640.0,STARLINK-3977,PAYLOAD,2022-06-13 14:00:01,15.73268059,0.0001606,53.2131,292.3702,37.005,235.0786,-0.00062469,-0.00087641,0.0,0 STARLINK-3977,1 52640U 22052AU  22164.58334491 -.00087641  00000-0 -62469-3 0  9998,2 52640  53.2131 292.3702 0001606  37.0050 235.0786 15.73268059  1308,6727.701,91.529,350.647,348.486,0.0
52640.0,STARLINK-3977,PAYLOAD,2022-06-13 20:00:01,15.73213776,0.0001826,53.2127,291.1336,38.8169,209.9708,0.00028103,0.00039028,0.0,0 STARLINK-3977,1 52640U 22052AU  22164.83334491  .00039028  00000-0  28103-3 0  9997,2 52640  53.2127 291.1336 0001826  38.8169 209.9708 15.73213776  5109,6727.856,91.532,350.949,348.492,0.0
52640.0,STARLINK-3977,PAYLOAD,2022-06-13 22:00:00,15.73262289,0.0001809,53.2126,290.7207,37.7257,323.2885,-0.00042785,-0.00060401,0.0,0 STARLINK-3977,1 52640U 22052AU  22164.91667824 -.00060401  00000-0 -42785-3 0  9998,2 52640  53.2126 290.7207 0001809  37.7257 323.2885 15.73262289  1304,6727.718000000003,91.53,350.8,348.366,0.0
52640.0,STARLINK-3977,PAYLOAD,2022-06-14 12:00:00,15.73263455,0.0001709,53.2133,287.8332,39.9838,26.6919,-0.0008843,-0.00123265,0.0,0 STARLINK-3977,1 52640U 22052AU  22165.50001157 -.00123265  00000-0 -88430-3 0  9990,2 52640  53.2133 287.8332 0001709  39.9838  26.6919 15.73263455  5218,6727.714,91.529,350.72900000000016,348.43,0.0
52640.0,STARLINK-3977,PAYLOAD,2022-06-14 14:00:01,15.73239424,0.0001797,53.2131,287.4213,38.4881,140.4363,-0.00082282,-0.00114738,0.0,0 STARLINK-3977,1 52640U 22052AU  22165.58334491 -.00114738  00000-0 -82282-3 0  9992,2 52640  53.2131 287.4213 0001797  38.4881 140.4363 15.73239424  1302,6727.783,91.531,350.857,348.439,0.0
52640.0,STARLINK-3977,PAYLOAD,2022-06-14 20:00:01,15.73143652,0.0001846,53.2131,286.1848,32.9871,122.6474,0.0003268,0.00045383,0.0,0 STARLINK-3977,1 52640U 22052AU  22165.83334491  .00045383  00000-0  32680-3 0  9994,2 52640  53.2131 286.1848 0001846  32.9871 122.6474 15.73143652  5266,6728.056,91.536,351.163,348.67900000000014,0.0
52640.0,STARLINK-3977,PAYLOAD,2022-06-14 22:00:00,15.73161222,0.0001792,53.2131,285.7717,32.0392,235.8099,0.00013748,0.00018686,0.0,0 STARLINK-3977,1 52640U 22052AU  22165.91667824  .00018686  00000-0  13748-3 0  9992,2 52640  53.2131 285.7717 0001792  32.0392 235.8099 15.73161222  1309,6728.005999999999,91.535,351.076,348.665,0.0
52640.0,STARLINK-3977,PAYLOAD,2022-06-15 14:00:01,15.73236604,0.0001816,53.2128,282.4732,29.8956,55.7563,-0.00063798,-0.00089357,0.0,0 STARLINK-3977,1 52640U 22052AU  22166.58334491 -.00089357  00000-0 -63798-3 0  9992,2 52640  53.2128 282.4732 0001816  29.8956  55.7563 15.73236604  1305,6727.791,91.531,350.87800000000016,348.434,0.0
52640.0,STARLINK-3977,PAYLOAD,2022-06-15 20:00:01,15.73203088,0.0001945,53.2127,281.2362,25.8457,36.5338,0.00019548,0.00026906,0.0,0 STARLINK-3977,1 52640U 22052AU  22166.83334491  .00026906  00000-0  19548-3 0  9993,2 52640  53.2127 281.2362 0001945  25.8457  36.5338 15.73203088  5429,6727.886,91.533,351.06,348.4430000000001,0.0
52640.0,STARLINK-3977,PAYLOAD,2022-06-15 22:00:00,15.73249025,0.0001866,53.2129,280.8233,27.1625,147.4395,-0.00050644,-0.00071251,0.0,0 STARLINK-3977,1 52640U 22052AU  22166.91667824 -.00071251  00000-0 -50644-3 0  9998,2 52640  53.2129 280.8233 0001866  27.1625 147.4395 15.73249025  1306,6727.755,91.53,350.876,348.365,0.0
52640.0,STARLINK-3977,PAYLOAD,2022-06-16 02:00:01,15.73205318,0.0001701,53.2135,279.9973,30.9227,8.1732,5.5752e-05,7.212e-05,0.0,0 STARLINK-3977,1 52640U 22052AU  22167.08334491  .00007212  00000-0  55752-4 0  9998,2 52640  53.2135 279.9973 0001701  30.9227   8.1732 15.73205318  1306,6727.88,91.533,350.889,348.601,0.0
52640.0,STARLINK-3977,PAYLOAD,2022-06-19 14:00:01,15.73185266,0.0002271,53.2129,262.67900000000003,17.8309,55.0578,3.28e-05,3.981e-05,0.0,0 STARLINK-3977,1 52640U 22052AU  22170.58334491  .00003981  00000-0  32800-4 0  9995,2 52640  53.2129 262.6790 0002271  17.8309  55.0578 15.73185266  1301,6727.937,91.534,351.33,348.274,0.0
52640.0,STARLINK-3977,PAYLOAD,2022-06-19 22:00:00,15.73226965,0.0002226,53.2123,261.0282,17.3157,144.4816,-0.00011703,-0.00017034,0.0,0 STARLINK-3977,1 52640U 22052AU  22170.91667824 -.00017034  00000-0 -11703-3 0  9995,2 52640  53.2123 261.0282 0002226  17.3157 144.4816 15.73226965  1300,6727.818,91.532,351.181,348.186,0.0
52640.0,STARLINK-3977,PAYLOAD,2022-06-20 04:00:01,15.73212133,0.0002077,53.2124,259.7897,20.3833,118.1949,-0.00012583,-0.00018253,0.0,0 STARLINK-3977,1 52640U 22052AU  22171.16668981 -.00018253  00000-0 -12583-3 0  9999,2 52640  53.2124 259.7897 0002077  20.3833 118.1949 15.73212133  6106,6727.861,91.532,351.12300000000016,348.32800000000015,0.0
52640.0,STARLINK-3977,PAYLOAD,2022-06-20 14:00:01,15.73142195,0.0002377,53.2128,257.73,19.192,320.4959,0.00022713,0.00031298,0.0,0 STARLINK-3977,1 52640U 22052AU  22171.58334491  .00031298  00000-0  22713-3 0  9999,2 52640  53.2128 257.7300 0002377  19.1920 320.4959 15.73142195  1309,6728.06,91.537,351.524,348.326,0.0
